{
 "generated_at": "2026-06-13T08:21:29Z",
 "sources": [
  {
   "name": "CelesTrak",
   "url": "https://celestrak.org/NORAD/elements/",
   "license": "frei verfügbar; Attribution. Ursprünglich USSPACECOM/Space-Track."
  },
  {
   "name": "GCAT (J. McDowell, planet4589.org)",
   "url": "https://planet4589.org/space/gcat/",
   "license": "CC-BY 4.0"
  }
 ],
 "satellites": [
  {
   "norad": 58648,
   "name": "TIANMU-1 14",
   "intl": "2023-205D",
   "group": "weather",
   "gcat": {
    "class": "B",
    "category": "MET",
    "owner": "TIANMU",
    "state": "CN"
   },
   "omm": {
    "OBJECT_NAME": "TIANMU-1 14",
    "OBJECT_ID": "2023-205D",
    "EPOCH": "2026-06-12T20:19:29.936064",
    "MEAN_MOTION": 15.26814988,
    "ECCENTRICITY": 0.0007413,
    "INCLINATION": 97.3399,
    "RA_OF_ASC_NODE": 184.6854,
    "ARG_OF_PERICENTER": 1.8937,
    "MEAN_ANOMALY": 358.2328,
    "EPHEMERIS_TYPE": 0,
    "CLASSIFICATION_TYPE": "U",
    "NORAD_CAT_ID": 58648,
    "ELEMENT_SET_NO": 999,
    "REV_AT_EPOCH": 13684,
    "BSTAR": 0.00022835,
    "MEAN_MOTION_DOT": 0.00005949,
    "MEAN_MOTION_DDOT": 0
   }
  },
  {
   "norad": 58700,
   "name": "TIANMU-1 15",
   "intl": "2024-004A",
   "group": "weather",
   "gcat": {
    "class": "B",
    "category": "MET",
    "owner": "TIANMU",
    "state": "CN"
   },
   "omm": {
    "OBJECT_NAME": "TIANMU-1 15",
    "OBJECT_ID": "2024-004A",
    "EPOCH": "2026-06-12T20:08:26.624256",
    "MEAN_MOTION": 15.26981733,
    "ECCENTRICITY": 0.0007134,
    "INCLINATION": 97.4664,
    "RA_OF_ASC_NODE": 350.0292,
    "ARG_OF_PERICENTER": 17.4116,
    "MEAN_ANOMALY": 342.7366,
    "EPHEMERIS_TYPE": 0,
    "CLASSIFICATION_TYPE": "U",
    "NORAD_CAT_ID": 58700,
    "ELEMENT_SET_NO": 999,
    "REV_AT_EPOCH": 13511,
    "BSTAR": 0.00022932,
    "MEAN_MOTION_DOT": 0.00006002,
    "MEAN_MOTION_DDOT": 0
   }
  },
  {
   "norad": 58701,
   "name": "TIANMU-1 16",
   "intl": "2024-004B",
   "group": "weather",
   "gcat": {
    "class": "B",
    "category": "MET",
    "owner": "TIANMU",
    "state": "CN"
   },
   "omm": {
    "OBJECT_NAME": "TIANMU-1 16",
    "OBJECT_ID": "2024-004B",
    "EPOCH": "2026-06-12T19:51:48.972096",
    "MEAN_MOTION": 15.26706606,
    "ECCENTRICITY": 0.0006274,
    "INCLINATION": 97.4611,
    "RA_OF_ASC_NODE": 349.2595,
    "ARG_OF_PERICENTER": 22.4322,
    "MEAN_ANOMALY": 337.719,
    "EPHEMERIS_TYPE": 0,
    "CLASSIFICATION_TYPE": "U",
    "NORAD_CAT_ID": 58701,
    "ELEMENT_SET_NO": 999,
    "REV_AT_EPOCH": 13511,
    "BSTAR": 0.00022876,
    "MEAN_MOTION_DOT": 0.00005937,
    "MEAN_MOTION_DDOT": 0
   }
  },
  {
   "norad": 58702,
   "name": "TIANMU-1 17",
   "intl": "2024-004C",
   "group": "weather",
   "gcat": {
    "class": "B",
    "category": "MET",
    "owner": "TIANMU",
    "state": "CN"
   },
   "omm": {
    "OBJECT_NAME": "TIANMU-1 17",
    "OBJECT_ID": "2024-004C",
    "EPOCH": "2026-06-12T21:05:14.838144",
    "MEAN_MOTION": 15.26706465,
    "ECCENTRICITY": 0.000597,
    "INCLINATION": 97.4639,
    "RA_OF_ASC_NODE": 349.7938,
    "ARG_OF_PERICENTER": 28.4274,
    "MEAN_ANOMALY": 331.7289,
    "EPHEMERIS_TYPE": 0,
    "CLASSIFICATION_TYPE": "U",
    "NORAD_CAT_ID": 58702,
    "ELEMENT_SET_NO": 999,
    "REV_AT_EPOCH": 13511,
    "BSTAR": 0.00023145,
    "MEAN_MOTION_DOT": 0.00006007,
    "MEAN_MOTION_DDOT": 0
   }
  },
  {
   "norad": 58703,
   "name": "TIANMU-1 18",
   "intl": "2024-004D",
   "group": "weather",
   "gcat": {
    "class": "B",
    "category": "MET",
    "owner": "TIANMU",
    "state": "CN"
   },
   "omm": {
    "OBJECT_NAME": "TIANMU-1 18",
    "OBJECT_ID": "2024-004D",
    "EPOCH": "2026-06-12T20:32:17.677824",
    "MEAN_MOTION": 15.26964208,
    "ECCENTRICITY": 0.0004464,
    "INCLINATION": 97.4656,
    "RA_OF_ASC_NODE": 350.0237,
    "ARG_OF_PERICENTER": 28.9084,
    "MEAN_ANOMALY": 331.2401,
    "EPHEMERIS_TYPE": 0,
    "CLASSIFICATION_TYPE": "U",
    "NORAD_CAT_ID": 58703,
    "ELEMENT_SET_NO": 999,
    "REV_AT_EPOCH": 13511,
    "BSTAR": 0.00022314,
    "MEAN_MOTION_DOT": 0.00005833,
    "MEAN_MOTION_DDOT": 0
   }
  },
  {
   "norad": 58660,
   "name": "TIANMU-1 19",
   "intl": "2023-208A",
   "group": "weather",
   "gcat": {
    "class": "B",
    "category": "MET",
    "owner": "TIANMU",
    "state": "CN"
   },
   "omm": {
    "OBJECT_NAME": "TIANMU-1 19",
    "OBJECT_ID": "2023-208A",
    "EPOCH": "2026-06-12T20:15:34.205760",
    "MEAN_MOTION": 15.31511636,
    "ECCENTRICITY": 0.0004144,
    "INCLINATION": 97.4498,
    "RA_OF_ASC_NODE": 280.1218,
    "ARG_OF_PERICENTER": 347.4642,
    "MEAN_ANOMALY": 12.6496,
    "EPHEMERIS_TYPE": 0,
    "CLASSIFICATION_TYPE": "U",
    "NORAD_CAT_ID": 58660,
    "ELEMENT_SET_NO": 999,
    "REV_AT_EPOCH": 13666,
    "BSTAR": 0.00027963,
    "MEAN_MOTION_DOT": 0.00008434,
    "MEAN_MOTION_DDOT": 0
   }
  },
  {
   "norad": 58661,
   "name": "TIANMU-1 20",
   "intl": "2023-208B",
   "group": "weather",
   "gcat": {
    "class": "B",
    "category": "MET",
    "owner": "TIANMU",
    "state": "CN"
   },
   "omm": {
    "OBJECT_NAME": "TIANMU-1 20",
    "OBJECT_ID": "2023-208B",
    "EPOCH": "2026-06-12T21:14:51.228096",
    "MEAN_MOTION": 15.3270309,
    "ECCENTRICITY": 0.0006374,
    "INCLINATION": 97.4441,
    "RA_OF_ASC_NODE": 280.794,
    "ARG_OF_PERICENTER": 351.2235,
    "MEAN_ANOMALY": 8.8895,
    "EPHEMERIS_TYPE": 0,
    "CLASSIFICATION_TYPE": "U",
    "NORAD_CAT_ID": 58661,
    "ELEMENT_SET_NO": 999,
    "REV_AT_EPOCH": 13676,
    "BSTAR": 0.00026777,
    "MEAN_MOTION_DOT": 0.00008383,
    "MEAN_MOTION_DDOT": 0
   }
  },
  {
   "norad": 58662,
   "name": "TIANMU-1 21",
   "intl": "2023-208C",
   "group": "weather",
   "gcat": {
    "class": "B",
    "category": "MET",
    "owner": "TIANMU",
    "state": "CN"
   },
   "omm": {
    "OBJECT_NAME": "TIANMU-1 21",
    "OBJECT_ID": "2023-208C",
    "EPOCH": "2026-06-12T19:33:29.977056",
    "MEAN_MOTION": 15.35003623,
    "ECCENTRICITY": 0.0006292,
    "INCLINATION": 97.4499,
    "RA_OF_ASC_NODE": 283.385,
    "ARG_OF_PERICENTER": 342.4068,
    "MEAN_ANOMALY": 17.6956,
    "EPHEMERIS_TYPE": 0,
    "CLASSIFICATION_TYPE": "U",
    "NORAD_CAT_ID": 58662,
    "ELEMENT_SET_NO": 999,
    "REV_AT_EPOCH": 13689,
    "BSTAR": 0.0003069,
    "MEAN_MOTION_DOT": 0.00010348,
    "MEAN_MOTION_DDOT": 0
   }
  },
  {
   "norad": 58663,
   "name": "TIANMU-1 22",
   "intl": "2023-208D",
   "group": "weather",
   "gcat": {
    "class": "B",
    "category": "MET",
    "owner": "TIANMU",
    "state": "CN"
   },
   "omm": {
    "OBJECT_NAME": "TIANMU-1 22",
    "OBJECT_ID": "2023-208D",
    "EPOCH": "2026-06-12T19:47:15.821088",
    "MEAN_MOTION": 15.30999915,
    "ECCENTRICITY": 0.000364,
    "INCLINATION": 97.4495,
    "RA_OF_ASC_NODE": 280.0418,
    "ARG_OF_PERICENTER": 19.8989,
    "MEAN_ANOMALY": 340.2393,
    "EPHEMERIS_TYPE": 0,
    "CLASSIFICATION_TYPE": "U",
    "NORAD_CAT_ID": 58663,
    "ELEMENT_SET_NO": 999,
    "REV_AT_EPOCH": 13666,
    "BSTAR": 0.00026174,
    "MEAN_MOTION_DOT": 0.00007763,
    "MEAN_MOTION_DDOT": 0
   }
  }
 ]
}
